CCSDS_OMM_VERS,COMMENT,CREATION_DATE,ORIGINATOR,OBJECT_NAME,OBJECT_ID,CENTER_NAME,REF_FRAME,TIME_SYSTEM,MEAN_ELEMENT_THEORY,EPOCH,MEAN_MOTION,ECCENTRICITY,INCLINATION,RA_OF_ASC_NODE,ARG_OF_PERICENTER,MEAN_ANOMALY,EPHEMERIS_TYPE,CLASSIFICATION_TYPE,NORAD_CAT_ID,ELEMENT_SET_NO,REV_AT_EPOCH,BSTAR,MEAN_MOTION_DOT,MEAN_MOTION_DDOT,SEMIMAJOR_AXIS,PERIOD,APOAPSIS,PERIAPSIS,OBJECT_TYPE,RCS_SIZE,COUNTRY_CODE,LAUNCH_DATE,SITE,DECAY_DATE,FILE,GP_ID,TLE_LINE0,TLE_LINE1,TLE_LINE2,,,,,,,AVG_ALTITUDE,,AVG_VELOCITY
2,GENERATED VIA SPACE-TRACK.ORG API,2022-06-03T06:36:13,18 SPCS,ONEWEB-0227,2021-045AB,EARTH,TEME,UTC,SGP4,2022-06-03T03:38:50.324640,13.15547822,0.0001705,87.9179,192.6175,101.9759,258.1562,0,U,48792,999,5157,9.08E-05,4.70E-07,0,7579.911,109.46,1203.068,1200.483,PAYLOAD,LARGE,UK,5/28/2021,VOSTO,,3478124,205218188,0 ONEWEB-0227,1 48792U 21045AB  22154.15197135  .00000047  00000-0  90770-4 0  9996,2 48792  87.9179 192.6175 0001705 101.9759 258.1562 13.15547822 51574,,,,,,,1209.911,,7.251650528
2,GENERATED VIA SPACE-TRACK.ORG API,2022-06-03T06:36:13,18 SPCS,ONEWEB-0226,2021-045AC,EARTH,TEME,UTC,SGP4,2022-06-03T03:29:42.880416,13.15550019,0.0001479,87.9161,192.5772,71.1973,288.9318,0,U,48793,999,5153,-5.34E-05,-7.00E-08,0,7579.902,109.46,1202.888,1200.646,PAYLOAD,MEDIUM,UK,5/28/2021,VOSTO,,3478107,205216743,0 ONEWEB-0226,1 48793U 21045AC  22154.14563519 -.00000007  00000-0 -53379-4 0  9991,2 48793  87.9161 192.5772 0001479  71.1973 288.9318 13.15550019 51530,,,,,,,1209.902,,7.251654833
2,GENERATED VIA SPACE-TRACK.ORG API,2022-06-03T02:31:39,18 SPCS,ONEWEB-0224,2021-045AD,EARTH,TEME,UTC,SGP4,2022-06-02T19:22:55.828704,13.15547653,0.000227,87.9095,192.6797,106.7525,253.3854,0,U,48794,999,5029,-3.66E-05,-1.00E-08,0,7579.911,109.46,1203.497,1200.056,PAYLOAD,MEDIUM,UK,5/28/2021,VOSTO,,3477983,205214184,0 ONEWEB-0224,1 48794U 21045AD  22153.80759061 -.00000001  00000-0 -36602-4 0  9997,2 48794  87.9095 192.6797 0002270 106.7525 253.3854 13.15547653 50296,,,,,,,1209.911,,7.251650528
2,GENERATED VIA SPACE-TRACK.ORG API,2022-06-03T02:31:39,18 SPCS,ONEWEB-0233,2021-045AE,EARTH,TEME,UTC,SGP4,2022-06-02T19:48:48.841920,13.15547519,0.000181,87.9163,192.6389,104.7065,255.4266,0,U,48795,999,5030,-0.00036,-1.23E-06,0,7579.912,109.46,1203.149,1200.405,PAYLOAD,LARGE,UK,5/28/2021,VOSTO,,3477983,205212433,0 ONEWEB-0233,1 48795U 21045AE  22153.82556530 -.00000123  00000-0 -36000-3 0  9992,2 48795  87.9163 192.6389 0001810 104.7065 255.4266 13.15547519 50309,,,,,,,1209.912,,7.25165005
2,GENERATED VIA SPACE-TRACK.ORG API,2022-06-03T02:31:39,18 SPCS,ONEWEB-0190,2021-045AF,EARTH,TEME,UTC,SGP4,2022-06-02T19:10:45.381504,13.15545689,7.26E-05,87.9166,192.6328,67.4567,292.664,0,U,48796,999,5038,0.00035739,1.47E-06,0,7579.919,109.46,1202.334,1201.233,PAYLOAD,MEDIUM,UK,5/28/2021,VOSTO,,3477983,205212683,0 ONEWEB-0190,1 48796U 21045AF  22153.79913636  .00000147  00000-0  35739-3 0  9995,2 48796  87.9166 192.6328 0000726  67.4567 292.6640 13.15545689 50386,,,,,,,1209.919,,7.251646701
2,GENERATED VIA SPACE-TRACK.ORG API,2022-06-03T02:31:39,18 SPCS,ONEWEB-0236,2021-045AG,EARTH,TEME,UTC,SGP4,2022-06-02T19:35:05.944992,13.15546632,0.0001885,87.9101,192.7223,94.6924,265.4422,0,U,48797,999,5027,-0.00021584,-6.80E-07,0,7579.915,109.46,1203.209,1200.351,PAYLOAD,MEDIUM,UK,5/28/2021,VOSTO,,3477983,205213435,0 ONEWEB-0236,1 48797U 21045AG  22153.81604103 -.00000068  00000-0 -21584-3 0  9992,2 48797  87.9101 192.7223 0001885  94.6924 265.4422 13.15546632 50270,,,,,,,1209.915,,7.251648615
2,GENERATED VIA SPACE-TRACK.ORG API,2022-06-03T02:31:39,18 SPCS,ONEWEB-0248,2021-045AH,EARTH,TEME,UTC,SGP4,2022-06-02T19:53:20.590656,13.15548053,0.0001137,87.9099,192.692,124.4041,235.7197,0,U,48798,999,5043,-0.0010357,-3.77E-06,0,7579.91,109.46,1202.637,1200.913,PAYLOAD,LARGE,UK,5/28/2021,VOSTO,,3477983,205213684,0 ONEWEB-0248,1 48798U 21045AH  22153.82871054 -.00000377  00000-0 -10357-2 0  9993,2 48798  87.9099 192.6920 0001137 124.4041 235.7197 13.15548053 50438,,,,,,,1209.91,,7.251651006
2,GENERATED VIA SPACE-TRACK.ORG API,2022-06-03T07:16:12,18 SPCS,ONEWEB-0225,2021-045AJ,EARTH,TEME,UTC,SGP4,2022-06-03T03:41:52.121472,13.15549284,0.0001254,87.9146,192.636,98.5509,261.5763,0,U,48799,999,5162,0.00013433,6.30E-07,0,7579.905,109.46,1202.72,1200.819,PAYLOAD,MEDIUM,UK,5/28/2021,VOSTO,,3478495,205226928,0 ONEWEB-0225,1 48799U 21045AJ  22154.15407548  .00000063  00000-0  13433-3 0  9993,2 48799  87.9146 192.6360 0001254  98.5509 261.5763 13.15549284 51625,,,,,,,1209.905,,7.251653398
2,GENERATED VIA SPACE-TRACK.ORG API,2022-06-03T02:31:39,18 SPCS,ONEWEB-0215,2021-045AK,EARTH,TEME,UTC,SGP4,2022-06-02T19:41:10.568544,13.15548301,9.01E-05,87.9095,192.6915,113.1994,246.9232,0,U,48800,999,5031,-0.00061391,-2.18E-06,0,7579.909,109.46,1202.457,1201.091,PAYLOAD,MEDIUM,UK,5/28/2021,VOSTO,,3477983,205213184,0 ONEWEB-0215,1 48800U 21045AK  22153.82026121 -.00000218  00000-0 -61391-3 0  9993,2 48800  87.9095 192.6915 0000901 113.1994 246.9232 13.15548301 50319,,,,,,,1209.909,,7.251651485
2,GENERATED VIA SPACE-TRACK.ORG API,2022-06-03T06:26:12,18 SPCS,ONEWEB-0216,2021-045AL,EARTH,TEME,UTC,SGP4,2022-06-03T03:14:30.863616,13.15549513,0.0002076,87.9144,192.6474,83.8593,276.2773,0,U,48801,999,5148,-1.95E-05,5.00E-08,0,7579.904,109.46,1203.343,1200.195,PAYLOAD,LARGE,UK,5/28/2021,VOSTO,,3478040,205215593,0 ONEWEB-0216,1 48801U 21045AL  22154.13507944  .00000005  00000-0 -19529-4 0  9996,2 48801  87.9144 192.6474 0002076  83.8593 276.2773 13.15549513 51489,,,,,,,1209.904,,7.251653877
2,GENERATED VIA SPACE-TRACK.ORG API,2022-06-03T06:26:12,18 SPCS,ONEWEB-0239,2021-045AM,EARTH,TEME,UTC,SGP4,2022-06-03T03:20:34.684512,13.15547724,0.0001039,87.9143,192.6481,108.7049,251.4195,0,U,48802,999,5154,-0.00026266,-8.60E-07,0,7579.911,109.46,1202.563,1200.988,PAYLOAD,LARGE,UK,5/28/2021,VOSTO,,3478065,205216161,0 ONEWEB-0239,1 48802U 21045AM  22154.13929033 -.00000086  00000-0 -26266-3 0  9999,2 48802  87.9143 192.6481 0001039 108.7049 251.4195 13.15547724 51540,,,,,,,1209.911,,7.251650528
2,GENERATED VIA SPACE-TRACK.ORG API,2022-06-02T04:36:12,18 SPCS,OBJECT A,2021-050A,EARTH,TEME,UTC,SGP4,2022-06-02T04:14:24.859968,15.27681281,0.0012338,97.4728,228.211,108.1515,303.7949,0,U,48840,999,5425,0,-7.50E-07,0,6860.883,94.26,491.213,474.283,UNKNOWN,MEDIUM,PRC,6/11/2021,TSC,,3476279,205128543,0 OBJECT A,1 48840U 21050A   22153.17667662 -.00000075  00000-0  00000+0 0  9998,2 48840  97.4728 228.2110 0012338 108.1515 303.7949 15.27681281 54259,,,,,,,490.883,,7.622174952
2,GENERATED VIA SPACE-TRACK.ORG API,2022-06-03T07:16:12,18 SPCS,OBJECT B,2021-050B,EARTH,TEME,UTC,SGP4,2022-06-03T04:05:00.838176,15.26387859,0.0012991,97.4726,229.0107,102.3692,342.8864,0,U,48841,999,5438,0,-7.40E-07,0,6864.758,94.34,495.541,477.705,UNKNOWN,MEDIUM,PRC,6/11/2021,TSC,,3478497,205226949,0 OBJECT B,1 48841U 21050B   22154.17014859 -.00000074  00000-0  00000+0 0  9993,2 48841  97.4726 229.0107 0012991 102.3692 342.8864 15.26387859 54387,,,,,,,494.758,,7.620023376
2,GENERATED VIA SPACE-TRACK.ORG API,2022-06-03T07:16:12,18 SPCS,OBJECT C,2021-050C,EARTH,TEME,UTC,SGP4,2022-06-03T02:40:19.540992,15.27343083,0.0012966,97.4735,229.0985,103.6821,323.6038,0,U,48842,999,5438,0.00033153,8.83E-05,0,6861.896,94.281,492.658,474.863,UNKNOWN,MEDIUM,PRC,6/11/2021,TSC,,3478495,205226919,0 OBJECT C,1 48842U 21050C   22154.11133728  .00008825  00000-0  33153-3 0  9995,2 48842  97.4735 229.0985 0012966 103.6821 323.6038 15.27343083 54384,,,,,,,491.896,,7.621612313
2,GENERATED VIA SPACE-TRACK.ORG API,2022-06-03T04:46:12,18 SPCS,OBJECT D,2021-050D,EARTH,TEME,UTC,SGP4,2022-06-03T03:57:52.093728,15.23130545,0.0012637,97.4716,228.5452,138.8275,276.7755,0,U,48843,999,5437,0,-7.20E-07,0,6874.542,94.542,505.094,487.719,UNKNOWN,LARGE,PRC,6/11/2021,TSC,,3477999,205215300,0 OBJECT D,1 48843U 21050D   22154.16518627 -.00000072  00000-0  00000+0 0  9994,2 48843  97.4716 228.5452 0012637 138.8275 276.7755 15.23130545 54371,,,,,,,504.542,,7.614598953
2,GENERATED VIA SPACE-TRACK.ORG API,2022-06-02T22:36:12,18 SPCS,ODYSSEY,2021-051A,EARTH,TEME,UTC,SGP4,2022-06-02T09:02:33.047232,15.61631871,0.002875,97.485,85.4319,80.1937,280.2564,0,U,48844,999,5486,0.00038257,0.00033532,0,6761.08,92.211,402.383,363.507,PAYLOAD,MEDIUM,US,6/13/2021,WRAS,,3477632,205182123,0 ODYSSEY,1 48844U 21051A   22153.37677138  .00033532  00000-0  38257-3 0  9996,2 48844  97.4850  85.4319 0028750  80.1937 280.2564 15.61631871 54862,,,,,,,391.08,,7.678225846
2,GENERATED VIA SPACE-TRACK.ORG API,2022-06-03T02:31:39,18 SPCS,RAMSAT,1998-067SL,EARTH,TEME,UTC,SGP4,2022-06-02T19:50:48.975072,15.68618367,0.0001427,51.638,32.2481,92.6958,267.4202,0,U,48850,999,5503,0.0004023,0.00046344,0,6740.989,91.801,363.816,361.892,PAYLOAD,SMALL,US,11/20/1998,TTMTR,,3477983,205213689,0 RAMSAT,1 48850U 98067SL  22153.82695573  .00046344  00000-0  40230-3 0  9996,2 48850  51.6380  32.2481 0001427  92.6958 267.4202 15.68618367 55030,,,,,,,370.989,,7.689659514
2,GENERATED VIA SPACE-TRACK.ORG API,2022-06-03T07:16:12,18 SPCS,YAOGAN-30 AA,2021-055A,EARTH,TEME,UTC,SGP4,2022-06-03T03:58:14.517120,14.90475068,0.0006589,34.9974,49.1987,247.7346,112.266,0,U,48860,999,5218,9.00E-05,8.68E-06,0,6974.59,96.613,601.051,591.86,PAYLOAD,LARGE,PRC,6/18/2021,XSC,,3478496,205226937,0 YAOGAN-30 AA,1 48860U 21055A   22154.16544580  .00000868  00000-0  89961-4 0  9995,2 48860  34.9974  49.1987 0006589 247.7346 112.2660 14.90475068 52181,,,,,,,604.59,,7.559787329
2,GENERATED VIA SPACE-TRACK.ORG API,2022-06-03T07:16:12,18 SPCS,YAOGAN-30 AB,2021-055B,EARTH,TEME,UTC,SGP4,2022-06-03T03:25:50.436768,14.90496553,0.0006373,34.9967,49.006,266.3095,93.688,0,U,48861,999,5216,8.80E-05,8.48E-06,0,6974.523,96.612,600.833,591.943,PAYLOAD,LARGE,PRC,6/18/2021,XSC,,3478495,205226927,0 YAOGAN-30 AB,1 48861U 21055B   22154.14294487  .00000848  00000-0  87954-4 0  9990,2 48861  34.9967  49.0060 0006373 266.3095  93.6880 14.90496553 52160,,,,,,,604.523,,7.559823641
